[{"OBJECT_NAME":"SALSAT","OBJECT_ID":"2020-068K","EPOCH":"2026-03-09T22:26:21.804576","MEAN_MOTION":15.28191989,"ECCENTRICITY":0.00082652,"INCLINATION":97.8859,"RA_OF_ASC_NODE":66.0795,"ARG_OF_PERICENTER":295.8051,"MEAN_ANOMALY":64.2334,"EPHEMERIS_TYPE":0,"CLASSIFICATION_TYPE":"U","NORAD_CAT_ID":46495,"ELEMENT_SET_NO":999,"REV_AT_EPOCH":30019,"BSTAR":0.00040842582,"MEAN_MOTION_DOT":0.00011156,"MEAN_MOTION_DDOT":0},{"OBJECT_NAME":"STARLINK-31805","OBJECT_ID":"2024-090R","EPOCH":"2026-03-08T09:03:50.440032","MEAN_MOTION":15.27574915,"ECCENTRICITY":8.21e-5,"INCLINATION":42.9984,"RA_OF_ASC_NODE":190.5453,"ARG_OF_PERICENTER":280.8207,"MEAN_ANOMALY":79.2552,"EPHEMERIS_TYPE":0,"CLASSIFICATION_TYPE":"U","NORAD_CAT_ID":59745,"ELEMENT_SET_NO":999,"REV_AT_EPOCH":10324,"BSTAR":-3.187108e-6,"MEAN_MOTION_DOT":-3.49e-6,"MEAN_MOTION_DDOT":0}]
